ORBCOMM FM33            
1 25983U 99065D   25055.61838179  .00003629  00000+0  11970-2 0  9995
2 25983  45.0271 173.9924 0010265 216.1931 143.8225 14.39519044319840
ORBCOMM FM36            
1 25984U 99065E   25055.57369754  .00002546  00000+0  88716-3 0  9999
2 25984  45.0379 264.4016 0003779  99.3381 260.7895 14.37612468318214
ORBCOMM FM35            
1 25985U 99065F   25055.75295098  .00002328  00000+0  83110-3 0  9990
2 25985  45.0383 267.7186 0003580 184.7673 175.3142 14.36662188318801
ORBCOMM FM34            
1 25986U 99065G   25055.86086306  .00002310  00000+0  82420-3 0  9997
2 25986  45.0377 267.7134 0004176 135.8655 224.2527 14.36709923318784
ORBCOMM FM38            
1 33060U 08031A   25055.60892787  .00004880  00000+0  65772-3 0  9997
2 33060  48.4395 131.4807 0006432 274.4624  85.5557 14.80493138898062
ORBCOMM FM41            
1 33061U 08031B   25055.74364714  .00004897  00000+0  66575-3 0  9997
2 33061  48.4429 138.2435 0005589 262.2096 241.3613 14.80117337898017
ORBCOMM FM29            
1 33062U 08031C   25055.66854231  .00005204  00000+0  70471-3 0  9990
2 33062  48.4381 146.5312 0007382 260.0216 253.0786 14.80170892897862
ORBCOMM FM39            
1 33063U 08031D   25055.49598961  .00004691  00000+0  65843-3 0  9993
2 33063  48.4390 170.4235 0008100 234.5067 125.5092 14.78828641897112
